INTELSAT 31 (IS-31)     
1 41581C 16035A   22223.00000000 -.00000060  00000-0  00000-0 0  2232
2 41581   0.0275 200.8494 0000888  17.1189   6.4136  1.00268934    17
INTELSAT 31 (IS-31) [PM]
1 41581C 16035A   22223.35960648 -.00000067  00000-0  00000-0 0  2230
2 41581   0.0256 197.7949 0000927  16.7971 139.5969  1.00272257    18
INTELSAT 31 (IS-31)     
1 41581C 16035A   22227.00000000 -.00000062  00000-0  00000-0 0  2272
2 41581   0.0279 221.2448 0001258   8.8651 358.2133  1.00270431    10
INTELSAT 36 (IS-36) [PM]
1 41747C 16053A   22222.35736111  .00000066  00000-0  00000-0 0  2226
2 41747   0.0066  47.5768 0002948 317.8779 150.4964  1.00270318    11
INTELSAT 36 (IS-36)     
1 41747C 16053A   22223.00000000  .00000066  00000-0  00000-0 0  2231
2 41747   0.0053  64.8381 0003097 304.5892  18.5046  1.00269737    13
INTELSAT 36 (IS-36)     
1 41747C 16053A   22227.00000000  .00000064  00000-0  00000-0 0  2277
2 41747   0.0019  68.2065 0002607 292.7398  30.9201  1.00270420    19
INTELSAT 33E            
1 41748C 16053B   22223.00000000  .00000119  00000-0  00000-0 0  2231
2 41748   0.0014  68.2152 0001954  65.8974 245.3083  1.00270140    14
INTELSAT 33E        [PM]
1 41748C 16053B   22225.74637732  .00000139  00000-0  00000-0 0  2256
2 41748   0.0368 300.1191 0001858 208.6726 142.0215  1.00270625    10
INTELSAT 33E            
1 41748C 16053B   22226.93123843 -.00002124  00000-0  00000-0 0  2269
2 41748   0.0001  64.8577 0001783  91.7368 201.9346  1.00271504    13
INTELSAT 33E        [PM]
1 41748C 16053B   22228.73195602  .00000142  00000-0  00000-0 0  2280
2 41748   0.0100   0.3323 0001725 161.8210 126.4089  1.00271995    17
INTELSAT 32E        [PM]
1 41945C 17007B   22222.61782407 -.00000192  00000-0  00000-0 0  2225
2 41945   0.0041 100.4288 0000785 315.1783  82.6730  1.00273742    14
INTELSAT 32E            
1 41945C 17007B   22223.00000000 -.00000179  00000-0  00000-0 0  2237
2 41945   0.0101 103.7868 0000509 342.2114 190.2434  1.00269319    16
INTELSAT 32E            
1 41945C 17007B   22226.93123843 -.00000177  00000-0  00000-0 0  2264
2 41945   0.0000 127.4005 0000302 291.4318 196.5485  1.00270190    16
INTELSAT 35E            
1 42818C 17041A   22223.00000000 -.00000140  00000-0  00000-0 0  2233
2 42818   0.0026 120.6739 0002151   9.2988 154.9481  1.00271308    11
INTELSAT 35E        [PM]
1 42818C 17041A   22226.50846065 -.00000117  00000-0  00000-0 0  2267
2 42818   0.0091 183.0519 0001787 322.3413 326.0271  1.00271704    17
INTELSAT 35E            
1 42818C 17041A   22226.93123843  .00000007  00000-0  00000-0 0  2263
2 42818   0.0069 177.8003 0001773 327.9832 118.2532  1.00271657    10
INTELSAT 35E        [PM]
1 42818C 17041A   22228.50738426 -.00000099  00000-0  00000-0 0  2281
2 42818   0.0283 248.7372 0001519 266.4731 317.7936  1.00273026    14
INTELSAT 37E            
1 42950C 17059A   22223.00000000 -.00000138  00000-0  00000-0 0  2236
2 42950   0.0468 265.9275 0003115 239.6710 155.8324  1.00278602    19
INTELSAT 37E            
1 42950C 17059A   22226.93123843  .00000141  00000-0  00000-0 0  2268
2 42950   0.0151 205.9962 0002678 303.6480 130.9085  1.00271275    11
INTELSAT 37E        [PM]
1 42950C 17059A   22226.96180556 -.00000061  00000-0  00000-0 0  2267
2 42950   0.0140 203.5650 0002687 306.3498 141.6721  1.00271320    13
AZERSPACE 2 (IS-38)     
1 43632C 18074A   22223.00000000  .00000227  00000-0  00000-0 0  2230
2 43632   0.0111 108.2172 0001823  33.0992 223.2045  1.00270785    13
AZERSPACE 2 (IS-38)     
1 43632C 18074A   22227.00000000  .00000227  00000-0  00000-0 0  2278
2 43632   0.0065 118.8980 0001534  37.8622 211.6974  1.00270872    15
HORIZONS-3E             
1 43633C 18074B   22223.00000000  .00000044  00000-0  00000-0 0  2238
2 43633   0.0085 187.1602 0001720 115.1266 186.1288  1.00268632    14
HORIZONS-3E             
1 43633C 18074B   22227.00000000  .00000038  00000-0  00000-0 0  2279
2 43633   0.0457 291.2054 0002034   5.8450 195.3071  1.00270868    10
INTELSAT 39 (IS-39)     
1 44476C 19049B   22223.00000000  .00000119  00000-0  00000-0 0  2230
2 44476   0.0000 121.9298 0000799 255.6416   3.7923  1.00270400    12
INTELSAT 39 (IS-39) [PM]
1 44476C 19049B   22223.19226852 -.00000040  00000-0  00000-0 0  2239
2 44476   0.0424 266.4857 0000735 109.2571  75.0298  1.00271198    16
INTELSAT 39 (IS-39)     
1 44476C 19049B   22227.00000000  .00000037  00000-0  00000-0 0  2277
2 44476   0.0001 157.6467 0000744 188.7236  38.9352  1.00270553    18
GALAXY 30 (G-30)        
1 46114C 20056C   22223.00000000 -.00002933  00000-0  00000-0 0  2238
2 46114   0.0001 135.6886 0002706   8.9067  49.8332  1.00271779    15
GALAXY 30 (G-30)    [PM]
1 46114C 20056C   22226.47693287  .00000127  00000-0  00000-0 0  2262
2 46114   0.0000 110.5390 0001951  30.7593 228.2471  1.00270976    19
GALAXY 30 (G-30)        
1 46114C 20056C   22226.93123843  .00000118  00000-0  00000-0 0  2269
2 46114   0.0011 124.2511 0001937  23.5785  25.7119  1.00271017    11
